GLOBALSTAR M094 [+]     
1 39074U 13005C   24021.93515717 -.00000083  00000+0  11633-3 0  9997
2 39074  51.9973 301.7748 0000442  60.1934 299.8977 12.62271230507708
GLOBALSTAR M078 [+]     
1 39076U 13005E   24022.15980211 -.00000058  00000+0  25309-3 0  9996
2 39076  51.9878  74.4112 0001499 122.3749 237.7262 12.62258025505254
GLOBALSTAR M095 [+]     
1 39077U 13005F   24022.26499558 -.00000091  00000+0  70259-4 0  9990
2 39077  51.9809  71.5398 0001058 147.8938 212.1993 12.62262754505124
GLOBALSTAR M087 [+]     
1 52888U 22064A   24022.35257535 -.00000087  00000+0  79279-4 0  9993
2 52888  51.9782   0.3828 0009537 354.5185   5.5610 13.37563079 77871
